{"type": "FeatureCollection", "features": [{"type": "Feature", "id": "hoechstgeschwindigkeit.449", "geometry": {"type": "MultiLineString", "coordinates": [[[13.33856812, 52.51795228], [13.33882492, 52.51763633]], [[13.33850211, 52.51793231], [13.33875891, 52.51761637]]]}, "geometry_name": "geom", "properties": {"gisid": 449, "elem_nr": "42540006_42540005.01", "wert_ves": 30, "zeit_t": null, "tag_t": null, "durch_t": "angeordnete Verkehrseinschränkung", "dann_t": null, "dat_t": null}, "bbox": [13.33850211, 52.51761637, 13.33882492, 52.51795228]}, {"type": "Feature", "id": "hoechstgeschwindigkeit.772", "geometry": {"type": "MultiLineString", "coordinates": [[[13.33793272, 52.5136715], [13.33790886, 52.5139182], [13.33784086, 52.51432294], [13.33784149, 52.51454]], [[13.33800626, 52.51367414], [13.33798231, 52.51392182], [13.33791454, 52.5143252], [13.33791516, 52.51453992]]]}, "geometry_name": "geom", "properties": {"gisid": 772, "elem_nr": "42540019_42540011.01", "wert_ves": 30, "zeit_t": null, "tag_t": null, "durch_t": "angeordnete Verkehrseinschränkung", "dann_t": null, "dat_t": null}, "bbox": [13.33784086, 52.5136715, 13.33800626, 52.51454]}, {"type": "Feature", "id": "hoechstgeschwindigkeit.773", "geometry": {"type": "MultiLineString", "coordinates": [[[13.33784186, 52.51454315], [13.33787491, 52.51468406], [13.33794606, 52.51484841], [13.33808102, 52.51504388], [13.33819292, 52.51516383], [13.33834845, 52.51528913], [13.33884809, 52.51563575]], [[13.33791479, 52.51453678], [13.33794723, 52.51467511], [13.33801596, 52.51483388], [13.33814721, 52.51502397], [13.33825456, 52.51513904], [13.33840556, 52.51526069], [13.33890341, 52.51560607]]]}, "geometry_name": "geom", "properties": {"gisid": 773, "elem_nr": "42540011_42540008.01", "wert_ves": 30, "zeit_t": null, "tag_t": null, "durch_t": "angeordnete Verkehrseinschränkung", "dann_t": null, "dat_t": null}, "bbox": [13.33784186, 52.51453678, 13.33890341, 52.51563575]}, {"type": "Feature", "id": "hoechstgeschwindigkeit.774", "geometry": {"type": "MultiLineString", "coordinates": [[[13.33884727, 52.51563516], [13.33954469, 52.51615376], [13.34065399, 52.51691898]], [[13.33890423, 52.51560666], [13.33960078, 52.51612461], [13.34070918, 52.51688921]]]}, "geometry_name": "geom", "properties": {"gisid": 774, "elem_nr": "42540008_42540009.02", "wert_ves": 30, "zeit_t": null, "tag_t": null, "durch_t": "angeordnete Verkehrseinschränkung", "dann_t": null, "dat_t": null}, "bbox": [13.33884727, 52.51560666, 13.34070918, 52.51691898]}, {"type": "Feature", "id": "hoechstgeschwindigkeit.775", "geometry": {"type": "MultiLineString", "coordinates": [[[13.34065345, 52.5169186], [13.34180415, 52.51774937], [13.34204908, 52.51793247]], [[13.34070972, 52.51688959], [13.34186083, 52.51772066], [13.34210616, 52.51790406]]]}, "geometry_name": "geom", "properties": {"gisid": 775, "elem_nr": "42540009_42540002.01", "wert_ves": 30, "zeit_t": null, "tag_t": null, "durch_t": "angeordnete Verkehrseinschränkung", "dann_t": null, "dat_t": null}, "bbox": [13.34065345, 52.51688959, 13.34210616, 52.51793247]}, {"type": "Feature", "id": "hoechstgeschwindigkeit.1220", "geometry": {"type": "MultiLineString", "coordinates": [[[13.33326484, 52.51925825], [13.3340297, 52.51899503]], [[13.33322864, 52.51921911], [13.3339935, 52.51895589]]]}, "geometry_name": "geom", "properties": {"gisid": 1220, "elem_nr": "41550023_41550021.01", "wert_ves": 30, "zeit_t": null, "tag_t": null, "durch_t": "angeordnete Verkehrseinschränkung", "dann_t": null, "dat_t": null}, "bbox": [13.33322864, 52.51895589, 13.3340297, 52.51925825]}, {"type": "Feature", "id": "hoechstgeschwindigkeit.4164", "geometry": {"type": "MultiLineString", "coordinates": [[[13.3307832, 52.51402946], [13.3308198, 52.51410512], [13.33224239, 52.51590861]], [[13.33085385, 52.51401674], [13.33088877, 52.51408891], [13.33230877, 52.51588912]]]}, "geometry_name": "geom", "properties": {"gisid": 4164, "elem_nr": "41540008_41540009.02", "wert_ves": 30, "zeit_t": null, "tag_t": null, "durch_t": "angeordnete Verkehrseinschränkung", "dann_t": null, "dat_t": null}, "bbox": [13.3307832, 52.51401674, 13.33230877, 52.51590861]}, {"type": "Feature", "id": "hoechstgeschwindigkeit.4545", "geometry": {"type": "MultiLineString", "coordinates": [[[13.35494206, 52.51785626], [13.3550927, 52.51831294], [13.3552365, 52.51874175], [13.35533714, 52.51902003], [13.3554695, 52.51937183]], [[13.35486983, 52.51786512], [13.3550205, 52.51832188], [13.35516443, 52.51875109], [13.35526526, 52.5190299], [13.35539769, 52.51938188]]]}, "geometry_name": "geom", "properties": {"gisid": 4545, "elem_nr": "43540001_43550021.01", "wert_ves": 30, "zeit_t": null, "tag_t": null, "durch_t": "Lärmschutz", "dann_t": null, "dat_t": "30.09.2003"}, "bbox": [13.35486983, 52.51785626, 13.3554695, 52.51938188]}, {"type": "Feature", "id": "hoechstgeschwindigkeit.4822", "geometry": {"type": "MultiLineString", "coordinates": [[[13.34210801, 52.51790556], [13.34217241, 52.51796287], [13.34292913, 52.51848811], [13.34331149, 52.5187541], [13.34352704, 52.51885441], [13.34368939, 52.51890311], [13.34388407, 52.5189537], [13.34408399, 52.51898454], [13.3442083, 52.51899986]], [[13.34204724, 52.51793097], [13.34211414, 52.51799051], [13.34287377, 52.51851776], [13.34326095, 52.5187871], [13.34348807, 52.51889281], [13.34365867, 52.51894398], [13.34386046, 52.51899642], [13.34406765, 52.51902838], [13.34419371, 52.51904392]]]}, "geometry_name": "geom", "properties": {"gisid": 4822, "elem_nr": "42540002_42550039.01", "wert_ves": 30, "zeit_t": null, "tag_t": null, "durch_t": "Verkehrssicherheit", "dann_t": null, "dat_t": null}, "bbox": [13.34204724, 52.51790556, 13.3442083, 52.51904392]}, {"type": "Feature", "id": "hoechstgeschwindigkeit.4823", "geometry": {"type": "MultiLineString", "coordinates": [[[13.34420604, 52.51899963], [13.34599474, 52.51915023], [13.34609026, 52.51916304]], [[13.34419597, 52.51904415], [13.34598177, 52.51919451], [13.34607444, 52.51920694]]]}, "geometry_name": "geom", "properties": {"gisid": 4823, "elem_nr": "42550039_42550040.01", "wert_ves": 30, "zeit_t": null, "tag_t": null, "durch_t": "Verkehrssicherheit", "dann_t": null, "dat_t": null}, "bbox": [13.34419597, 52.51899963, 13.34609026, 52.51920694]}, {"type": "Feature", "id": "hoechstgeschwindigkeit.4824", "geometry": {"type": "MultiLineString", "coordinates": [[[13.34609178, 52.51916326], [13.34624907, 52.51918868], [13.34645525, 52.51925614], [13.34658342, 52.51931904], [13.34668988, 52.51938825], [13.34674905, 52.519449], [13.34694922, 52.51970397], [13.34731356, 52.52019245]], [[13.34607292, 52.51920671], [13.34622186, 52.51923078], [13.3464144, 52.51929378], [13.34653322, 52.51935209], [13.34663065, 52.51941543], [13.34668403, 52.51947023], [13.34688246, 52.51972299], [13.3472465, 52.52021106]]]}, "geometry_name": "geom", "properties": {"gisid": 4824, "elem_nr": "42550040_42550041.01", "wert_ves": 30, "zeit_t": null, "tag_t": null, "durch_t": "Verkehrssicherheit", "dann_t": null, "dat_t": null}, "bbox": [13.34607292, 52.51916326, 13.34731356, 52.52021106]}, {"type": "Feature", "id": "hoechstgeschwindigkeit.5076", "geometry": {"type": "MultiLineString", "coordinates": [[[13.33237896, 52.50617304], [13.33266256, 52.50624377], [13.3329026, 52.50644098], [13.33310678, 52.50649116], [13.33329008, 52.5065636], [13.33343562, 52.50668266], [13.33400628, 52.50740994], [13.33450828, 52.50805774], [13.3346223, 52.50821104], [13.33463747, 52.50831567], [13.33462082, 52.50841075], [13.33454771, 52.5084969], [13.33442, 52.50857529], [13.33433685, 52.5085976]]]}, "geometry_name": "geom", "properties": {"gisid": 5076, "elem_nr": "41530022_41530042.01", "wert_ves": 20, "zeit_t": null, "tag_t": null, "durch_t": "Verkehrssicherheit", "dann_t": null, "dat_t": null}, "bbox": [13.33237896, 52.50617304, 13.33463747, 52.5085976]}, {"type": "Feature", "id": "hoechstgeschwindigkeit.5077", "geometry": {"type": "MultiLineString", "coordinates": [[[13.33428546, 52.50857972], [13.33426092, 52.50845561], [13.33398687, 52.50809413], [13.3336653, 52.50772643], [13.33360985, 52.50759493]]]}, "geometry_name": "geom", "properties": {"gisid": 5077, "elem_nr": "41530042_41530047.01", "wert_ves": 20, "zeit_t": null, "tag_t": null, "durch_t": "Verkehrssicherheit", "dann_t": null, "dat_t": null}, "bbox": [13.33360985, 52.50759493, 13.33428546, 52.50857972]}, {"type": "Feature", "id": "hoechstgeschwindigkeit.5151", "geometry": {"type": "MultiLineString", "coordinates": [[[13.34848264, 52.50744037], [13.34872475, 52.50762602], [13.3489122, 52.50778774], [13.34903498, 52.50791157], [13.34916985, 52.50806526], [13.34927179, 52.50818493], [13.34938924, 52.50837433], [13.34948689, 52.50857371]], [[13.34842501, 52.50746836], [13.34866582, 52.50765301], [13.34885054, 52.50781238], [13.34897095, 52.50793382], [13.3491047, 52.50808623], [13.34920443, 52.50820331], [13.34931942, 52.50838873], [13.34941631, 52.50858658]]]}, "geometry_name": "geom", "properties": {"gisid": 5151, "elem_nr": "42530009_42530017.01", "wert_ves": 30, "zeit_t": "22:00 - 06:00", "tag_t": null, "durch_t": "Lärmschutz", "dann_t": "Zeitangabe", "dat_t": "26.05.2008"}, "bbox": [13.34842501, 52.50744037, 13.34948689, 52.50858658]}, {"type": "Feature", "id": "hoechstgeschwindigkeit.12711", "geometry": {"type": "MultiLineString", "coordinates": [[[13.33765649, 52.51979456], [13.33768985, 52.51989011], [13.33799553, 52.52018426], [13.33815409, 52.5203617], [13.3382957, 52.52056246], [13.33840339, 52.52073196], [13.33857204, 52.52111047]], [[13.33758443, 52.51980392], [13.33762054, 52.51990736], [13.337932, 52.52020708], [13.33808776, 52.52038138], [13.33822748, 52.52057947], [13.3383333, 52.52074601], [13.33850094, 52.52112226]]]}, "geometry_name": "geom", "properties": {"gisid": 12711, "elem_nr": "42550015_42550012.02", "wert_ves": 30, "zeit_t": null, "tag_t": null, "durch_t": "angeordnete Verkehrseinschränkung", "dann_t": null, "dat_t": null}, "bbox": [13.33758443, 52.51979456, 13.33857204, 52.52112226]}, {"type": "Feature", "id": "hoechstgeschwindigkeit.12727", "geometry": {"type": "MultiLineString", "coordinates": [[[13.33203933, 52.51975634], [13.33282125, 52.52043045], [13.33286166, 52.52048532]], [[13.33197918, 52.5197823], [13.33275697, 52.52045285], [13.33279445, 52.52050374]]]}, "geometry_name": "geom", "properties": {"gisid": 12727, "elem_nr": "41550016_41550002.02", "wert_ves": 30, "zeit_t": null, "tag_t": null, "durch_t": "angeordnete Verkehrseinschränkung", "dann_t": null, "dat_t": null}, "bbox": [13.33197918, 52.51975634, 13.33286166, 52.52050374]}, {"type": "Feature", "id": "hoechstgeschwindigkeit.12728", "geometry": {"type": "MultiLineString", "coordinates": [[[13.33039308, 52.52037748], [13.33049713, 52.52035378], [13.33190305, 52.51977199], [13.33199507, 52.51974858]], [[13.33041886, 52.52041958], [13.33053118, 52.520394], [13.33193826, 52.51981173], [13.33202343, 52.51979006]]]}, "geometry_name": "geom", "properties": {"gisid": 12728, "elem_nr": "41550022_41550016.02", "wert_ves": 30, "zeit_t": null, "tag_t": null, "durch_t": "angeordnete Verkehrseinschränkung", "dann_t": null, "dat_t": null}, "bbox": [13.33039308, 52.51974858, 13.33202343, 52.52041958]}, {"type": "Feature", "id": "hoechstgeschwindigkeit.12729", "geometry": {"type": "MultiLineString", "coordinates": [[[13.33114528, 52.51896604], [13.33203957, 52.51975656]], [[13.33108464, 52.51899157], [13.33197893, 52.51978208]]]}, "geometry_name": "geom", "properties": {"gisid": 12729, "elem_nr": "41550015_41550016.02", "wert_ves": 30, "zeit_t": null, "tag_t": null, "durch_t": "angeordnete Verkehrseinschränkung", "dann_t": null, "dat_t": null}, "bbox": [13.33108464, 52.51896604, 13.33203957, 52.51978208]}, {"type": "Feature", "id": "hoechstgeschwindigkeit.12730", "geometry": {"type": "MultiLineString", "coordinates": [[[13.33010838, 52.51939455], [13.33018901, 52.51934158], [13.33091827, 52.51902903], [13.33109508, 52.51895989]], [[13.33016237, 52.51942513], [13.33023772, 52.51937563], [13.33095935, 52.51906635], [13.33113484, 52.51899773]]]}, "geometry_name": "geom", "properties": {"gisid": 12730, "elem_nr": "41550025_41550015.02", "wert_ves": 30, "zeit_t": null, "tag_t": null, "durch_t": "angeordnete Verkehrseinschränkung", "dann_t": null, "dat_t": null}, "bbox": [13.33010838, 52.51895989, 13.33113484, 52.51942513]}, {"type": "Feature", "id": "hoechstgeschwindigkeit.12731", "geometry": {"type": "MultiLineString", "coordinates": [[[13.33017081, 52.519416], [13.33014434, 52.51947268], [13.33013825, 52.51953842], [13.33044198, 52.52039377]], [[13.33009995, 52.51940369], [13.33007124, 52.51946517], [13.33006412, 52.51954198], [13.33036997, 52.52040329]]]}, "geometry_name": "geom", "properties": {"gisid": 12731, "elem_nr": "41550025_41550022.02", "wert_ves": 30, "zeit_t": null, "tag_t": null, "durch_t": "angeordnete Verkehrseinschränkung", "dann_t": null, "dat_t": null}, "bbox": [13.33006412, 52.51940369, 13.33044198, 52.52040329]}, {"type": "Feature", "id": "hoechstgeschwindigkeit.12733", "geometry": {"type": "MultiLineString", "coordinates": [[[13.33198841, 52.51975079], [13.33389639, 52.51895219]], [[13.3320301, 52.51978785], [13.33393807, 52.51898925]]]}, "geometry_name": "geom", "properties": {"gisid": 12733, "elem_nr": "41550016_41550021.01", "wert_ves": 30, "zeit_t": null, "tag_t": null, "durch_t": "angeordnete Verkehrseinschränkung", "dann_t": null, "dat_t": null}, "bbox": [13.33198841, 52.51895219, 13.33393807, 52.51978785]}, {"type": "Feature", "id": "hoechstgeschwindigkeit.12734", "geometry": {"type": "MultiLineString", "coordinates": [[[13.33109366, 52.51896047], [13.33220178, 52.51848129]], [[13.33113627, 52.51899714], [13.33224439, 52.51851795]]]}, "geometry_name": "geom", "properties": {"gisid": 12734, "elem_nr": "41550015_41550026.02", "wert_ves": 30, "zeit_t": null, "tag_t": null, "durch_t": "angeordnete Verkehrseinschränkung", "dann_t": null, "dat_t": null}, "bbox": [13.33109366, 52.51848129, 13.33224439, 52.51899714]}, {"type": "Feature", "id": "hoechstgeschwindigkeit.12735", "geometry": {"type": "MultiLineString", "coordinates": [[[13.33220225, 52.51848109], [13.33425171, 52.5176231], [13.33433608, 52.51758199]], [[13.33224393, 52.51851815], [13.3342956, 52.51765924], [13.33438206, 52.51761711]]]}, "geometry_name": "geom", "properties": {"gisid": 12735, "elem_nr": "41550026_41540001.02", "wert_ves": 30, "zeit_t": null, "tag_t": null, "durch_t": "angeordnete Verkehrseinschränkung", "dann_t": null, "dat_t": null}, "bbox": [13.33220225, 52.51758199, 13.33438206, 52.51851815]}, {"type": "Feature", "id": "hoechstgeschwindigkeit.12736", "geometry": {"type": "MultiLineString", "coordinates": [[[13.33225318, 52.51848665], [13.33258247, 52.51877105], [13.33268949, 52.51884544]], [[13.332193, 52.51851258], [13.33252454, 52.51879892], [13.33263411, 52.51887508]]]}, "geometry_name": "geom", "properties": {"gisid": 12736, "elem_nr": "41550026_41550048.01", "wert_ves": 30, "zeit_t": null, "tag_t": null, "durch_t": "angeordnete Verkehrseinschränkung", "dann_t": null, "dat_t": null}, "bbox": [13.332193, 52.51848665, 13.33268949, 52.51887508]}, {"type": "Feature", "id": "hoechstgeschwindigkeit.12737", "geometry": {"type": "MultiLineString", "coordinates": [[[13.33389633, 52.51895221], [13.33555812, 52.51825397], [13.33567064, 52.51824522]], [[13.33393813, 52.51898923], [13.33558518, 52.51829718], [13.33567995, 52.51828981]]]}, "geometry_name": "geom", "properties": {"gisid": 12737, "elem_nr": "41550021_42540001.02", "wert_ves": 30, "zeit_t": null, "tag_t": null, "durch_t": "angeordnete Verkehrseinschränkung", "dann_t": null, "dat_t": null}, "bbox": [13.33389633, 52.51824522, 13.33567995, 52.51898923]}, {"type": "Feature", "id": "hoechstgeschwindigkeit.12738", "geometry": {"type": "MultiLineString", "coordinates": [[[13.33569883, 52.51825023], [13.33580315, 52.51830309], [13.33661847, 52.51892771]], [[13.33565176, 52.5182848], [13.33575024, 52.51833471], [13.33656083, 52.51895571]]]}, "geometry_name": "geom", "properties": {"gisid": 12738, "elem_nr": "42540001_42550002.02", "wert_ves": 30, "zeit_t": null, "tag_t": null, "durch_t": "angeordnete Verkehrseinschränkung", "dann_t": null, "dat_t": null}, "bbox": [13.33565176, 52.51825023, 13.33661847, 52.51895571]}, {"type": "Feature", "id": "hoechstgeschwindigkeit.12739", "geometry": {"type": "MultiLineString", "coordinates": [[[13.3339476, 52.518958], [13.33477766, 52.51969525]], [[13.33388686, 52.51898344], [13.33471692, 52.51972069]]]}, "geometry_name": "geom", "properties": {"gisid": 12739, "elem_nr": "41550021_42550001.02", "wert_ves": 30, "zeit_t": null, "tag_t": null, "durch_t": "angeordnete Verkehrseinschränkung", "dann_t": null, "dat_t": null}, "bbox": [13.33388686, 52.518958, 13.33477766, 52.51972069]}, {"type": "Feature", "id": "hoechstgeschwindigkeit.12740", "geometry": {"type": "MultiLineString", "coordinates": [[[13.33472638, 52.51968947], [13.33650202, 52.51894268], [13.33657356, 52.51892149]], [[13.3347682, 52.51972647], [13.33653924, 52.51898162], [13.33660574, 52.51896192]]]}, "geometry_name": "geom", "properties": {"gisid": 12740, "elem_nr": "42550001_42550002.02", "wert_ves": 30, "zeit_t": null, "tag_t": null, "durch_t": "angeordnete Verkehrseinschränkung", "dann_t": null, "dat_t": null}, "bbox": [13.33472638, 52.51892149, 13.33660574, 52.51972647]}, {"type": "Feature", "id": "hoechstgeschwindigkeit.12741", "geometry": {"type": "MultiLineString", "coordinates": [[[13.33661853, 52.51892776], [13.3375946, 52.51967963], [13.33765545, 52.5197922]], [[13.33656077, 52.51895566], [13.33752872, 52.51970128], [13.33758548, 52.51980627]]]}, "geometry_name": "geom", "properties": {"gisid": 12741, "elem_nr": "42550002_42550015.02", "wert_ves": 30, "zeit_t": null, "tag_t": null, "durch_t": "angeordnete Verkehrseinschränkung", "dann_t": null, "dat_t": null}, "bbox": [13.33656077, 52.51892776, 13.33765545, 52.51980627]}, {"type": "Feature", "id": "hoechstgeschwindigkeit.12742", "geometry": {"type": "MultiLineString", "coordinates": [[[13.33477758, 52.51969518], [13.33560459, 52.52042404], [13.33575189, 52.52052272]], [[13.334717, 52.51972076], [13.33554681, 52.52045208], [13.33569741, 52.52055298]]]}, "geometry_name": "geom", "properties": {"gisid": 12742, "elem_nr": "42550001_42550019.02", "wert_ves": 30, "zeit_t": null, "tag_t": null, "durch_t": "angeordnete Verkehrseinschränkung", "dann_t": null, "dat_t": null}, "bbox": [13.334717, 52.51969518, 13.33575189, 52.52055298]}, {"type": "Feature", "id": "hoechstgeschwindigkeit.12743", "geometry": {"type": "MultiLineString", "coordinates": [[[13.33280738, 52.52047593], [13.33459917, 52.51973472], [13.33472871, 52.51968857]], [[13.33284873, 52.52051313], [13.33463847, 52.51977276], [13.33476587, 52.51972738]]]}, "geometry_name": "geom", "properties": {"gisid": 12743, "elem_nr": "41550002_42550001.02", "wert_ves": 30, "zeit_t": null, "tag_t": null, "durch_t": "angeordnete Verkehrseinschränkung", "dann_t": null, "dat_t": null}, "bbox": [13.33280738, 52.51968857, 13.33476587, 52.52051313]}, {"type": "Feature", "id": "hoechstgeschwindigkeit.12787", "geometry": {"type": "MultiLineString", "coordinates": [[[13.33658221, 52.51765172], [13.33667007, 52.51769913], [13.33731927, 52.518159]], [[13.33653339, 52.51768538], [13.33661751, 52.51773077], [13.33726344, 52.51818833]]]}, "geometry_name": "geom", "properties": {"gisid": 12787, "elem_nr": "42540007_42540013.02", "wert_ves": 30, "zeit_t": null, "tag_t": null, "durch_t": "angeordnete Verkehrseinschränkung", "dann_t": null, "dat_t": null}, "bbox": [13.33653339, 52.51765172, 13.33731927, 52.51818833]}, {"type": "Feature", "id": "hoechstgeschwindigkeit.12788", "geometry": {"type": "MultiLineString", "coordinates": [[[13.33652298, 52.51766121], [13.33742504, 52.5160676], [13.33749577, 52.51600485]], [[13.33659262, 52.51767588], [13.33749141, 52.51608804], [13.33755648, 52.51603031]]]}, "geometry_name": "geom", "properties": {"gisid": 12788, "elem_nr": "42540007_42540004.02", "wert_ves": 30, "zeit_t": null, "tag_t": null, "durch_t": "angeordnete Verkehrseinschränkung", "dann_t": null, "dat_t": null}, "bbox": [13.33652298, 52.51600485, 13.33755648, 52.51767588]}, {"type": "Feature", "id": "hoechstgeschwindigkeit.12789", "geometry": {"type": "MultiLineString", "coordinates": [[[13.33539021, 52.51680242], [13.33542306, 52.51689637], [13.33547633, 52.51698216], [13.33554869, 52.51706373], [13.33566583, 52.51715977], [13.33658214, 52.51765168]], [[13.33531816, 52.51681179], [13.33535217, 52.51690909], [13.33540918, 52.5170009], [13.33548642, 52.51708796], [13.33561135, 52.51719039], [13.33653346, 52.51768542]]]}, "geometry_name": "geom", "properties": {"gisid": 12789, "elem_nr": "42540012_42540007.02", "wert_ves": 30, "zeit_t": null, "tag_t": null, "durch_t": "angeordnete Verkehrseinschränkung", "dann_t": null, "dat_t": null}, "bbox": [13.33531816, 52.51680242, 13.33658214, 52.51768542]}, {"type": "Feature", "id": "hoechstgeschwindigkeit.12820", "geometry": {"type": "MultiLineString", "coordinates": [[[13.35089404, 52.52023399], [13.35146299, 52.51981415]], [[13.35095083, 52.52026263], [13.35151977, 52.51984278]]]}, "geometry_name": "geom", "properties": {"gisid": 12820, "elem_nr": "43550009_43550016.02", "wert_ves": 30, "zeit_t": null, "tag_t": null, "durch_t": "angeordnete Verkehrseinschränkung", "dann_t": null, "dat_t": null}, "bbox": [13.35089404, 52.51981415, 13.35151977, 52.52026263]}, {"type": "Feature", "id": "hoechstgeschwindigkeit.12823", "geometry": {"type": "MultiLineString", "coordinates": [[[13.35246058, 52.51973459], [13.35298979, 52.5212439]], [[13.35238853, 52.51974399], [13.35291774, 52.5212533]]]}, "geometry_name": "geom", "properties": {"gisid": 12823, "elem_nr": "43550018_43550020.02", "wert_ves": 30, "zeit_t": null, "tag_t": null, "durch_t": "angeordnete Verkehrseinschränkung", "dann_t": null, "dat_t": null}, "bbox": [13.35238853, 52.51973459, 13.35298979, 52.5212533]}, {"type": "Feature", "id": "hoechstgeschwindigkeit.12824", "geometry": {"type": "MultiLineString", "coordinates": [[[13.35147509, 52.51980831], [13.35161703, 52.51976562], [13.35242092, 52.51971693]], [[13.35150767, 52.51984862], [13.35163761, 52.51980954], [13.3524282, 52.51976165]]]}, "geometry_name": "geom", "properties": {"gisid": 12824, "elem_nr": "43550016_43550018.02", "wert_ves": 30, "zeit_t": null, "tag_t": null, "durch_t": "angeordnete Verkehrseinschränkung", "dann_t": null, "dat_t": null}, "bbox": [13.35147509, 52.51971693, 13.3524282, 52.51984862]}, {"type": "Feature", "id": "hoechstgeschwindigkeit.12825", "geometry": {"type": "MultiLineString", "coordinates": [[[13.35242014, 52.51971698], [13.35304475, 52.51967098], [13.35378405, 52.51962176], [13.35417233, 52.51960805], [13.35459165, 52.5196091], [13.35515919, 52.51963612], [13.35553977, 52.5196837]], [[13.35242897, 52.5197616], [13.35305316, 52.51971563], [13.35379018, 52.51966656], [13.35417431, 52.519653], [13.35458863, 52.51965403], [13.35514889, 52.51968071], [13.35552497, 52.51972773]]]}, "geometry_name": "geom", "properties": {"gisid": 12825, "elem_nr": "43550018_43550019.02", "wert_ves": 30, "zeit_t": null, "tag_t": null, "durch_t": "angeordnete Verkehrseinschränkung", "dann_t": null, "dat_t": null}, "bbox": [13.35242014, 52.51960805, 13.35553977, 52.5197616]}, {"type": "Feature", "id": "hoechstgeschwindigkeit.15154", "geometry": {"type": "MultiLineString", "coordinates": [[[13.34361455, 52.50829854], [13.34438179, 52.50803819], [13.34566021, 52.50778213], [13.3463818, 52.50759084], [13.34712886, 52.50734537], [13.34754232, 52.50717608], [13.34775949, 52.50707655]], [[13.34365035, 52.50833782], [13.34441144, 52.50807955], [13.34568643, 52.50782418], [13.34641399, 52.50763131], [13.34716694, 52.5073839], [13.34758498, 52.50721273], [13.34780372, 52.50711249]]]}, "geometry_name": "geom", "properties": {"gisid": 15154, "elem_nr": "42530030_42530006.02", "wert_ves": 30, "zeit_t": null, "tag_t": null, "durch_t": "angeordnete Verkehrseinschränkung", "dann_t": null, "dat_t": null}, "bbox": [13.34361455, 52.50707655, 13.34780372, 52.50833782]}, {"type": "Feature", "id": "hoechstgeschwindigkeit.15169", "geometry": {"type": "MultiLineString", "coordinates": [[[13.34590098, 52.50827232], [13.34599284, 52.50823316], [13.34696318, 52.50796095], [13.34821281, 52.50749541], [13.34843881, 52.50743385]], [[13.34594316, 52.50830916], [13.34602961, 52.50827231], [13.34699787, 52.50800068], [13.34824716, 52.50753528], [13.34846884, 52.50747489]]]}, "geometry_name": "geom", "properties": {"gisid": 15169, "elem_nr": "42530008_42530009.02", "wert_ves": 30, "zeit_t": null, "tag_t": null, "durch_t": "angeordnete Verkehrseinschränkung", "dann_t": null, "dat_t": null}, "bbox": [13.34590098, 52.50743385, 13.34846884, 52.50830916]}, {"type": "Feature", "id": "hoechstgeschwindigkeit.15171", "geometry": {"type": "MultiLineString", "coordinates": [[[13.3459585, 52.50828744], [13.34610038, 52.50886988]], [[13.34588564, 52.50829405], [13.34602752, 52.50887648]]]}, "geometry_name": "geom", "properties": {"gisid": 15171, "elem_nr": "42530008_42530010.02", "wert_ves": 30, "zeit_t": null, "tag_t": null, "durch_t": "angeordnete Verkehrseinschränkung", "dann_t": null, "dat_t": null}, "bbox": [13.34588564, 52.50828744, 13.34610038, 52.50887648]}, {"type": "Feature", "id": "hoechstgeschwindigkeit.15175", "geometry": {"type": "MultiLineString", "coordinates": [[[13.34605902, 52.50885091], [13.34649091, 52.50881534], [13.34842707, 52.50863784], [13.34924747, 52.50855861], [13.34945132, 52.50855767]], [[13.34606888, 52.50889545], [13.34650131, 52.50885984], [13.3484383, 52.50868226], [13.34925354, 52.50860352], [13.34945188, 52.50860261]]]}, "geometry_name": "geom", "properties": {"gisid": 15175, "elem_nr": "42530010_42530017.02", "wert_ves": 30, "zeit_t": null, "tag_t": null, "durch_t": "angeordnete Verkehrseinschränkung", "dann_t": null, "dat_t": null}, "bbox": [13.34605902, 52.50855767, 13.34945188, 52.50889545]}, {"type": "Feature", "id": "hoechstgeschwindigkeit.15177", "geometry": {"type": "MultiLineString", "coordinates": [[[13.34610033, 52.50886966], [13.34636262, 52.50987961]], [[13.34602757, 52.5088767], [13.34628987, 52.50988664]]]}, "geometry_name": "geom", "properties": {"gisid": 15177, "elem_nr": "42530010_42540017.02", "wert_ves": 30, "zeit_t": null, "tag_t": null, "durch_t": "angeordnete Verkehrseinschränkung", "dann_t": null, "dat_t": null}, "bbox": [13.34602757, 52.50886966, 13.34636262, 52.50988664]}, {"type": "Feature", "id": "hoechstgeschwindigkeit.15179", "geometry": {"type": "MultiLineString", "coordinates": [[[13.34632654, 52.50986065], [13.34645287, 52.50986127], [13.34870641, 52.50955018], [13.34887063, 52.50955097]], [[13.34632595, 52.50990559], [13.3464608, 52.50990625], [13.34871435, 52.50959516], [13.34887004, 52.50959592]]]}, "geometry_name": "geom", "properties": {"gisid": 15179, "elem_nr": "42540017_42530018.02", "wert_ves": 30, "zeit_t": null, "tag_t": null, "durch_t": "angeordnete Verkehrseinschränkung", "dann_t": null, "dat_t": null}, "bbox": [13.34632595, 52.50955018, 13.34887063, 52.50990625]}, {"type": "Feature", "id": "hoechstgeschwindigkeit.15181", "geometry": {"type": "MultiLineString", "coordinates": [[[13.34544832, 52.5107943], [13.34561311, 52.51075825], [13.34625937, 52.50995219], [13.34629056, 52.50987757]], [[13.34547318, 52.5108366], [13.34566614, 52.51079439], [13.34632887, 52.50996778], [13.34636193, 52.50988868]]]}, "geometry_name": "geom", "properties": {"gisid": 15181, "elem_nr": "42540020_42540017.02", "wert_ves": 30, "zeit_t": null, "tag_t": null, "durch_t": "angeordnete Verkehrseinschränkung", "dann_t": null, "dat_t": null}, "bbox": [13.34544832, 52.50987757, 13.34636193, 52.5108366]}, {"type": "Feature", "id": "hoechstgeschwindigkeit.15187", "geometry": {"type": "MultiLineString", "coordinates": [[[13.34487543, 52.51033368], [13.3454895, 52.5108014]], [[13.34481794, 52.51036178], [13.34543201, 52.5108295]]]}, "geometry_name": "geom", "properties": {"gisid": 15187, "elem_nr": "42540043_42540020.01", "wert_ves": 30, "zeit_t": null, "tag_t": null, "durch_t": "angeordnete Verkehrseinschränkung", "dann_t": null, "dat_t": null}, "bbox": [13.34481794, 52.51033368, 13.3454895, 52.5108295]}, {"type": "Feature", "id": "hoechstgeschwindigkeit.15215", "geometry": {"type": "MultiLineString", "coordinates": [[[13.35195998, 52.50834729], [13.35206925, 52.50834615], [13.35232842, 52.50831178], [13.3526652, 52.50826173], [13.35294386, 52.50820213], [13.35318949, 52.50813142], [13.3542942, 52.50770048], [13.35463688, 52.50757313], [13.35497086, 52.50746894], [13.35511563, 52.50742983], [13.35526349, 52.50739509]], [[13.35196124, 52.50839223], [13.35207779, 52.50839101], [13.35234496, 52.50835557], [13.35268615, 52.50830487], [13.35297183, 52.50824377], [13.35322519, 52.50817084], [13.3543332, 52.50773861], [13.35467285, 52.50761239], [13.35500256, 52.50750953], [13.35514379, 52.50747138], [13.35528996, 52.50743704]]]}, "geometry_name": "geom", "properties": {"gisid": 15215, "elem_nr": "43530044_43530021.01", "wert_ves": 30, "zeit_t": null, "tag_t": null, "durch_t": "angeordnete Verkehrseinschränkung", "dann_t": null, "dat_t": null}, "bbox": [13.35195998, 52.50739509, 13.35528996, 52.50839223]}, {"type": "Feature", "id": "hoechstgeschwindigkeit.15216", "geometry": {"type": "MultiLineString", "coordinates": [[[13.3494446, 52.50855808], [13.34980605, 52.5085154], [13.35126707, 52.50837552], [13.35137274, 52.5083689]], [[13.3494586, 52.5086022], [13.34981876, 52.50855968], [13.35127654, 52.5084201], [13.35138026, 52.50841361]]]}, "geometry_name": "geom", "properties": {"gisid": 15216, "elem_nr": "42530017_43530043.01", "wert_ves": 30, "zeit_t": null, "tag_t": null, "durch_t": "angeordnete Verkehrseinschränkung", "dann_t": null, "dat_t": null}, "bbox": [13.3494446, 52.5083689, 13.35138026, 52.5086022]}, {"type": "Feature", "id": "hoechstgeschwindigkeit.15218", "geometry": {"type": "MultiLineString", "coordinates": [[[13.35305819, 52.50958361], [13.35335407, 52.50956868], [13.35358942, 52.50957196], [13.3538108, 52.50958802], [13.35473224, 52.50967067], [13.35547685, 52.50973674]], [[13.35306426, 52.5096284], [13.35335627, 52.50961367], [13.35358421, 52.50961684], [13.35380109, 52.50963258], [13.35472159, 52.50971514], [13.35546625, 52.50978122]]]}, "geometry_name": "geom", "properties": {"gisid": 15218, "elem_nr": "43530014_43540017.02", "wert_ves": 30, "zeit_t": "07:00 - 17:00", "tag_t": "Montag bis Freitag", "durch_t": "Schulwegsicherung", "dann_t": "Zeitangabe", "dat_t": "28.04.2009"}, "bbox": [13.35305819, 52.50956868, 13.35547685, 52.50978122]}, {"type": "Feature", "id": "hoechstgeschwindigkeit.15220", "geometry": {"type": "MultiLineString", "coordinates": [[[13.35149299, 52.50902161], [13.35132164, 52.50896023], [13.35128041, 52.50893389], [13.35125665, 52.50889393], [13.35124241, 52.50883328], [13.35134, 52.50838828]]]}, "geometry_name": "geom", "properties": {"gisid": 15220, "elem_nr": "43530041_43530043.01", "wert_ves": 30, "zeit_t": null, "tag_t": null, "durch_t": "angeordnete Verkehrseinschränkung", "dann_t": null, "dat_t": null}, "bbox": [13.35124241, 52.50838828, 13.35149299, 52.50902161]}, {"type": "Feature", "id": "hoechstgeschwindigkeit.15221", "geometry": {"type": "MultiLineString", "coordinates": [[[13.35134013, 52.50838773], [13.35154745, 52.50759171], [13.3517031, 52.5067072], [13.35173872, 52.50623223], [13.35206983, 52.50603944]]]}, "geometry_name": "geom", "properties": {"gisid": 15221, "elem_nr": "43530043_43530001.01", "wert_ves": 30, "zeit_t": null, "tag_t": null, "durch_t": "angeordnete Verkehrseinschränkung", "dann_t": null, "dat_t": null}, "bbox": [13.35134013, 52.50603944, 13.35206983, 52.50838773]}, {"type": "Feature", "id": "hoechstgeschwindigkeit.15222", "geometry": {"type": "MultiLineString", "coordinates": [[[13.35211212, 52.50634281], [13.35233806, 52.50668702], [13.35234214, 52.50674989], [13.35199713, 52.50837265]]]}, "geometry_name": "geom", "properties": {"gisid": 15222, "elem_nr": "43530016_43530044.01", "wert_ves": 30, "zeit_t": null, "tag_t": null, "durch_t": "angeordnete Verkehrseinschränkung", "dann_t": null, "dat_t": null}, "bbox": [13.35199713, 52.50634281, 13.35234214, 52.50837265]}, {"type": "Feature", "id": "hoechstgeschwindigkeit.15223", "geometry": {"type": "MultiLineString", "coordinates": [[[13.351997, 52.50837322], [13.35197637, 52.50845398], [13.35193679, 52.50849072], [13.3518807, 52.50851401], [13.3516471, 52.50853269]]]}, "geometry_name": "geom", "properties": {"gisid": 15223, "elem_nr": "43530044_43530015.01", "wert_ves": 30, "zeit_t": null, "tag_t": null, "durch_t": "angeordnete Verkehrseinschränkung", "dann_t": null, "dat_t": null}, "bbox": [13.3516471, 52.50837322, 13.351997, 52.50853269]}, {"type": "Feature", "id": "hoechstgeschwindigkeit.25988", "geometry": {"type": "MultiLineString", "coordinates": [[[13.33884851, 52.51560578], [13.33897447, 52.51552135], [13.33913078, 52.51544957], [13.33931327, 52.5153946], [13.33947213, 52.51538411], [13.33947596, 52.51538434]]]}, "geometry_name": "geom", "properties": {"gisid": 25988, "elem_nr": "42540008_42540015.02", "wert_ves": 30, "zeit_t": null, "tag_t": null, "durch_t": "angeordnete Verkehrseinschränkung", "dann_t": null, "dat_t": null}, "bbox": [13.33884851, 52.51538411, 13.33947596, 52.51560578]}, {"type": "Feature", "id": "hoechstgeschwindigkeit.25989", "geometry": {"type": "MultiLineString", "coordinates": [[[13.33947596, 52.51538434], [13.34314235, 52.51560948], [13.34329168, 52.51562682], [13.34339161, 52.51567046], [13.34370682, 52.51616715], [13.34371638, 52.51625308], [13.34368175, 52.51632749], [13.34358875, 52.51637352], [13.34347758, 52.51639985], [13.34141031, 52.51656403], [13.34131723, 52.51659507], [13.34070582, 52.51692102]]]}, "geometry_name": "geom", "properties": {"gisid": 25989, "elem_nr": "42540015_42540009.02", "wert_ves": 30, "zeit_t": null, "tag_t": null, "durch_t": "angeordnete Verkehrseinschränkung", "dann_t": null, "dat_t": null}, "bbox": [13.33947596, 52.51538434, 13.34371638, 52.51692102]}, {"type": "Feature", "id": "hoechstgeschwindigkeit.25990", "geometry": {"type": "MultiLineString", "coordinates": [[[13.34416451, 52.51901883], [13.34427072, 52.51854738], [13.3443129, 52.51850551], [13.3443315, 52.51850458]], [[13.3442375, 52.51902495], [13.3443416, 52.51856286], [13.34435613, 52.51854844]]]}, "geometry_name": "geom", "properties": {"gisid": 25990, "elem_nr": "42550039_42540014.02", "wert_ves": 30, "zeit_t": null, "tag_t": null, "durch_t": "angeordnete Verkehrseinschränkung", "dann_t": null, "dat_t": null}, "bbox": [13.34416451, 52.51850458, 13.34435613, 52.51902495]}, {"type": "Feature", "id": "hoechstgeschwindigkeit.25991", "geometry": {"type": "MultiLineString", "coordinates": [[[13.3443315, 52.51850458], [13.34440672, 52.51850081], [13.34478685, 52.5184943], [13.34494907, 52.51847367], [13.34566808, 52.51830084], [13.34581473, 52.51827595], [13.34591883, 52.51831419], [13.34606507, 52.51850849], [13.34617911, 52.51868026], [13.34622556, 52.51882867], [13.34617782, 52.51911006], [13.34611596, 52.51919418]], [[13.34435613, 52.51854844], [13.34441077, 52.5185457], [13.34479547, 52.51853912], [13.34497024, 52.51851689], [13.34569152, 52.51834351], [13.3458039, 52.51832444], [13.34586136, 52.51834554], [13.34599741, 52.51852631], [13.3461081, 52.51869303], [13.34615116, 52.51883061], [13.34610576, 52.51909825], [13.34604874, 52.51917579]]]}, "geometry_name": "geom", "properties": {"gisid": 25991, "elem_nr": "42540014_42550040.02", "wert_ves": 30, "zeit_t": null, "tag_t": null, "durch_t": "angeordnete Verkehrseinschränkung", "dann_t": null, "dat_t": null}, "bbox": [13.3443315, 52.51827595, 13.34622556, 52.51919418]}, {"type": "Feature", "id": "hoechstgeschwindigkeit.28056", "geometry": {"type": "MultiLineString", "coordinates": [[[13.33531737, 52.51680778], [13.33531174, 52.51669377], [13.33533446, 52.51660693], [13.33536221, 52.51651921], [13.33614862, 52.51494788], [13.33642371, 52.51484126]], [[13.33539101, 52.51680643], [13.33538559, 52.51669667], [13.33540703, 52.51661474], [13.33543381, 52.51653006], [13.33621112, 52.5149769], [13.33646322, 52.5148792]]]}, "geometry_name": "geom", "properties": {"gisid": 28056, "elem_nr": "42540012_42540003.03", "wert_ves": 30, "zeit_t": null, "tag_t": null, "durch_t": "angeordnete Verkehrseinschränkung", "dann_t": null, "dat_t": null}, "bbox": [13.33531174, 52.51484126, 13.33646322, 52.51680778]}, {"type": "Feature", "id": "hoechstgeschwindigkeit.28057", "geometry": {"type": "MultiLineString", "coordinates": [[[13.33701893, 52.51459939], [13.33787262, 52.51451776]], [[13.33703034, 52.51464379], [13.33788403, 52.51456216]]]}, "geometry_name": "geom", "properties": {"gisid": 28057, "elem_nr": "42540010_42540011.02", "wert_ves": 30, "zeit_t": null, "tag_t": null, "durch_t": "angeordnete Verkehrseinschränkung", "dann_t": null, "dat_t": null}, "bbox": [13.33701893, 52.51451776, 13.33788403, 52.51464379]}, {"type": "Feature", "id": "hoechstgeschwindigkeit.28538", "geometry": {"type": "MultiLineString", "coordinates": [[[13.3336091, 52.50758599], [13.33365826, 52.50738671], [13.33314724, 52.50675584], [13.33302108, 52.50669067], [13.33271331, 52.50662656], [13.33270667, 52.50662166]]]}, "geometry_name": "geom", "properties": {"gisid": 28538, "elem_nr": "41530047_41530049.01", "wert_ves": 20, "zeit_t": null, "tag_t": null, "durch_t": "Verkehrssicherheit", "dann_t": null, "dat_t": null}, "bbox": [13.33270667, 52.50662166, 13.33365826, 52.50758599]}, {"type": "Feature", "id": "hoechstgeschwindigkeit.28624", "geometry": {"type": "MultiLineString", "coordinates": [[[13.33987887, 52.51883671], [13.34001101, 52.51894234], [13.34057925, 52.519524], [13.34088346, 52.51986585], [13.34107007, 52.52011474], [13.34125109, 52.5203964], [13.34139647, 52.52063701]], [[13.3398203, 52.51886397], [13.33994988, 52.51896756], [13.34051521, 52.51954623], [13.3408175, 52.51988594], [13.34100222, 52.5201323], [13.34118222, 52.52041237], [13.34132734, 52.52065256]]]}, "geometry_name": "geom", "properties": {"gisid": 28624, "elem_nr": "42550037_42550045.01", "wert_ves": 30, "zeit_t": "06:00 - 18:00", "tag_t": "Montag bis Freitag", "durch_t": "Schulwegsicherung", "dann_t": "Zeitangabe", "dat_t": "05.10.2016"}, "bbox": [13.3398203, 52.51883671, 13.34139647, 52.52065256]}, {"type": "Feature", "id": "hoechstgeschwindigkeit.29258", "geometry": {"type": "MultiLineString", "coordinates": [[[13.33850793, 52.51940411], [13.3391436, 52.51912626], [13.33963181, 52.51892029], [13.33982774, 52.51883225]], [[13.33855085, 52.51944064], [13.33918601, 52.51916301], [13.33967463, 52.51895687], [13.33987143, 52.51886843]]]}, "geometry_name": "geom", "properties": {"gisid": 29258, "elem_nr": "42550038_42550037.01", "wert_ves": 30, "zeit_t": null, "tag_t": null, "durch_t": "Schulwegsicherung", "dann_t": null, "dat_t": "10.11.2020"}, "bbox": [13.33850793, 52.51883225, 13.33987143, 52.51944064]}, {"type": "Feature", "id": "hoechstgeschwindigkeit.29555", "geometry": {"type": "MultiLineString", "coordinates": [[[13.33570503, 52.52051883], [13.33738453, 52.5198744], [13.33759905, 52.51978095]], [[13.33574426, 52.52055687], [13.33742559, 52.51991174], [13.33764187, 52.51981752]]]}, "geometry_name": "geom", "properties": {"gisid": 29555, "elem_nr": "42550019_42550015.01", "wert_ves": 30, "zeit_t": null, "tag_t": null, "durch_t": "Lärmschutz, Schulwegsicherung", "dann_t": null, "dat_t": "10.11.2020"}, "bbox": [13.33570503, 52.51978095, 13.33764187, 52.52055687]}], "totalFeatures": 63, "numberMatched": 63, "numberReturned": 63, "timeStamp": "2026-06-02T11:25:44.120Z", "crs": {"type": "name", "properties": {"name": "urn:ogc:def:crs:EPSG::4326"}}, "bbox": [13.33006412, 52.50603944, 13.35553977, 52.5212533]}